STARLINK-35972          
1 66638U 25271X   25359.79002534  .00035457  00000+0  89191-3 0  9994
2 66638  53.1593 125.2248 0001085  76.5796 283.5329 15.39633138  6229
STARLINK-35908          
1 66639U 25271Y   25359.72046623  .00038474  00000+0  96710-3 0  9992
2 66639  53.1597 125.5009 0001113  80.8294 279.2836 15.39615700  6214
STARLINK-35921          
1 66640U 25271Z   25359.72975057  .00039047  00000+0  98064-3 0  9997
2 66640  53.1611 125.5600 0000121 242.9433 117.1560 15.39636254  6215
STARLINK-35923          
1 66641U 25271AA  25359.83335647  .00086808  00000+0  21599-2 0  9990
2 66641  53.1610 124.7171 0001118  57.2489 335.8700 15.39558184  6113
STARLINK-35926          
1 66642U 25271AB  25359.83335647  .00076225  00000+0  18998-2 0  9992
2 66642  53.1604 124.7658 0001136  58.2198 310.9678 15.39568194  6115
STARLINK-35918          
1 66643U 25271AC  25359.65090756  .00041607  00000+0  10433-2 0  9994
2 66643  53.1627 125.7760 0001349  83.2816 276.8342 15.39654781  6203
STARLINK-35938          
1 66644U 25271AD  25359.83335647  .00076380  00000+0  19035-2 0  9999
2 66644  53.1605 124.7698 0001043  68.3011 299.0520 15.39571048  6086
SHENZHOU-22             
1 66645U 25272A   25359.52309214  .00018242  00000+0  22529-3 0  9994
2 66645  41.4683 299.0697 0008377 143.3414 216.7999 15.59679589265989
COSMOS 2597 (RODNIK-S *)
1 66647U 25273A   25359.84626259  .00000038  00000+0  20445-3 0  9992
2 66647  82.4994 278.3110 0007598 255.1322 104.8916 12.41952295  3763
COSMOS 2598 (RODNIK-S *)
1 66648U 25273B   25359.82478964  .00000033  00000+0  16545-3 0  9990
2 66648  82.5032 278.3095 0008221 205.6590 154.4083 12.43233646  3761
COSMOS 2599 (RODNIK-S *)
1 66649U 25273C   25359.85889124  .00000042  00000+0  24122-3 0  9998
2 66649  82.5050 278.3392 0006339 243.1045 116.9386 12.41152341  3761
BEE-1000                
1 66650U 25274A   25359.76592792  .00001737  00000+0  17801-3 0  9991
2 66650  97.7405 286.7153 0011154 203.6875 156.3831 14.91704578  4346
