CCSDS_OMM_VERS = 2.0
CREATION_DATE  = 
ORIGINATOR     = 

OBJECT_NAME    = STARLINK-35972
OBJECT_ID      = 2025-271X
CENTER_NAME    = EARTH
REF_FRAME      = TEME
TIME_SYSTEM    = UTC
MEAN_ELEMENT_THEORY = SGP/SGP4

EPOCH          = 2025-12-25T18:57:38.189376
MEAN_MOTION    = 15.39633138
ECCENTRICITY   = .0001085
INCLINATION    = 53.1593
RA_OF_ASC_NODE = 125.2248
ARG_OF_PERICENTER = 76.5796
MEAN_ANOMALY   = 283.5329

EPHEMERIS_TYPE = 0
CLASSIFICATION_TYPE = U
NORAD_CAT_ID   = 66638
ELEMENT_SET_NO = 999
REV_AT_EPOCH   = 622
BSTAR          = .89191E-3
MEAN_MOTION_DOT = .35457E-3
MEAN_MOTION_DDOT = 0

CCSDS_OMM_VERS = 2.0
CREATION_DATE  = 
ORIGINATOR     = 

OBJECT_NAME    = STARLINK-35908
OBJECT_ID      = 2025-271Y
CENTER_NAME    = EARTH
REF_FRAME      = TEME
TIME_SYSTEM    = UTC
MEAN_ELEMENT_THEORY = SGP/SGP4

EPOCH          = 2025-12-25T17:17:28.282272
MEAN_MOTION    = 15.39615700
ECCENTRICITY   = .0001113
INCLINATION    = 53.1597
RA_OF_ASC_NODE = 125.5009
ARG_OF_PERICENTER = 80.8294
MEAN_ANOMALY   = 279.2836

EPHEMERIS_TYPE = 0
CLASSIFICATION_TYPE = U
NORAD_CAT_ID   = 66639
ELEMENT_SET_NO = 999
REV_AT_EPOCH   = 621
BSTAR          = .9671E-3
MEAN_MOTION_DOT = .38474E-3
MEAN_MOTION_DDOT = 0

CCSDS_OMM_VERS = 2.0
CREATION_DATE  = 
ORIGINATOR     = 

OBJECT_NAME    = STARLINK-35921
OBJECT_ID      = 2025-271Z
CENTER_NAME    = EARTH
REF_FRAME      = TEME
TIME_SYSTEM    = UTC
MEAN_ELEMENT_THEORY = SGP/SGP4

EPOCH          = 2025-12-25T17:30:50.449248
MEAN_MOTION    = 15.39636254
ECCENTRICITY   = .0000121
INCLINATION    = 53.1611
RA_OF_ASC_NODE = 125.5600
ARG_OF_PERICENTER = 242.9433
MEAN_ANOMALY   = 117.1560

EPHEMERIS_TYPE = 0
CLASSIFICATION_TYPE = U
NORAD_CAT_ID   = 66640
ELEMENT_SET_NO = 999
REV_AT_EPOCH   = 621
BSTAR          = .98064E-3
MEAN_MOTION_DOT = .39047E-3
MEAN_MOTION_DDOT = 0

CCSDS_OMM_VERS = 2.0
CREATION_DATE  = 
ORIGINATOR     = 

OBJECT_NAME    = STARLINK-35923
OBJECT_ID      = 2025-271AA
CENTER_NAME    = EARTH
REF_FRAME      = TEME
TIME_SYSTEM    = UTC
MEAN_ELEMENT_THEORY = SGP/SGP4

EPOCH          = 2025-12-25T20:00:01.999008
MEAN_MOTION    = 15.39558184
ECCENTRICITY   = .0001118
INCLINATION    = 53.1610
RA_OF_ASC_NODE = 124.7171
ARG_OF_PERICENTER = 57.2489
MEAN_ANOMALY   = 335.8700

EPHEMERIS_TYPE = 0
CLASSIFICATION_TYPE = U
NORAD_CAT_ID   = 66641
ELEMENT_SET_NO = 999
REV_AT_EPOCH   = 611
BSTAR          = .21599E-2
MEAN_MOTION_DOT = .86808E-3
MEAN_MOTION_DDOT = 0

CCSDS_OMM_VERS = 2.0
CREATION_DATE  = 
ORIGINATOR     = 

OBJECT_NAME    = STARLINK-35926
OBJECT_ID      = 2025-271AB
CENTER_NAME    = EARTH
REF_FRAME      = TEME
TIME_SYSTEM    = UTC
MEAN_ELEMENT_THEORY = SGP/SGP4

EPOCH          = 2025-12-25T20:00:01.999008
MEAN_MOTION    = 15.39568194
ECCENTRICITY   = .0001136
INCLINATION    = 53.1604
RA_OF_ASC_NODE = 124.7658
ARG_OF_PERICENTER = 58.2198
MEAN_ANOMALY   = 310.9678

EPHEMERIS_TYPE = 0
CLASSIFICATION_TYPE = U
NORAD_CAT_ID   = 66642
ELEMENT_SET_NO = 999
REV_AT_EPOCH   = 611
BSTAR          = .18998E-2
MEAN_MOTION_DOT = .76225E-3
MEAN_MOTION_DDOT = 0

CCSDS_OMM_VERS = 2.0
CREATION_DATE  = 
ORIGINATOR     = 

OBJECT_NAME    = STARLINK-35918
OBJECT_ID      = 2025-271AC
CENTER_NAME    = EARTH
REF_FRAME      = TEME
TIME_SYSTEM    = UTC
MEAN_ELEMENT_THEORY = SGP/SGP4

EPOCH          = 2025-12-25T15:37:18.413184
MEAN_MOTION    = 15.39654781
ECCENTRICITY   = .0001349
INCLINATION    = 53.1627
RA_OF_ASC_NODE = 125.7760
ARG_OF_PERICENTER = 83.2816
MEAN_ANOMALY   = 276.8342

EPHEMERIS_TYPE = 0
CLASSIFICATION_TYPE = U
NORAD_CAT_ID   = 66643
ELEMENT_SET_NO = 999
REV_AT_EPOCH   = 620
BSTAR          = .10433E-2
MEAN_MOTION_DOT = .41607E-3
MEAN_MOTION_DDOT = 0

CCSDS_OMM_VERS = 2.0
CREATION_DATE  = 
ORIGINATOR     = 

OBJECT_NAME    = STARLINK-35938
OBJECT_ID      = 2025-271AD
CENTER_NAME    = EARTH
REF_FRAME      = TEME
TIME_SYSTEM    = UTC
MEAN_ELEMENT_THEORY = SGP/SGP4

EPOCH          = 2025-12-25T20:00:01.999008
MEAN_MOTION    = 15.39571048
ECCENTRICITY   = .0001043
INCLINATION    = 53.1605
RA_OF_ASC_NODE = 124.7698
ARG_OF_PERICENTER = 68.3011
MEAN_ANOMALY   = 299.0520

EPHEMERIS_TYPE = 0
CLASSIFICATION_TYPE = U
NORAD_CAT_ID   = 66644
ELEMENT_SET_NO = 999
REV_AT_EPOCH   = 608
BSTAR          = .19035E-2
MEAN_MOTION_DOT = .7638E-3
MEAN_MOTION_DDOT = 0

CCSDS_OMM_VERS = 2.0
CREATION_DATE  = 
ORIGINATOR     = 

OBJECT_NAME    = SHENZHOU-22
OBJECT_ID      = 2025-272A
CENTER_NAME    = EARTH
REF_FRAME      = TEME
TIME_SYSTEM    = UTC
MEAN_ELEMENT_THEORY = SGP/SGP4

EPOCH          = 2025-12-25T12:33:15.160896
MEAN_MOTION    = 15.59679589
ECCENTRICITY   = .00083772
INCLINATION    = 41.4683
RA_OF_ASC_NODE = 299.0697
ARG_OF_PERICENTER = 143.3414
MEAN_ANOMALY   = 216.7999

EPHEMERIS_TYPE = 0
CLASSIFICATION_TYPE = U
NORAD_CAT_ID   = 66645
ELEMENT_SET_NO = 999
REV_AT_EPOCH   = 26598
BSTAR          = .22529008E-3
MEAN_MOTION_DOT = .18242E-3
MEAN_MOTION_DDOT = 0

CCSDS_OMM_VERS = 2.0
CREATION_DATE  = 
ORIGINATOR     = 

OBJECT_NAME    = COSMOS 2597 (RODNIK-S 22)
OBJECT_ID      = 2025-273A
CENTER_NAME    = EARTH
REF_FRAME      = TEME
TIME_SYSTEM    = UTC
MEAN_ELEMENT_THEORY = SGP/SGP4

EPOCH          = 2025-12-25T20:18:37.087776
MEAN_MOTION    = 12.41952295
ECCENTRICITY   = .0007598
INCLINATION    = 82.4994
RA_OF_ASC_NODE = 278.3110
ARG_OF_PERICENTER = 255.1322
MEAN_ANOMALY   = 104.8916

EPHEMERIS_TYPE = 0
CLASSIFICATION_TYPE = U
NORAD_CAT_ID   = 66647
ELEMENT_SET_NO = 999
REV_AT_EPOCH   = 376
BSTAR          = .20445E-3
MEAN_MOTION_DOT = .38E-6
MEAN_MOTION_DDOT = 0

CCSDS_OMM_VERS = 2.0
CREATION_DATE  = 
ORIGINATOR     = 

OBJECT_NAME    = COSMOS 2598 (RODNIK-S 23)
OBJECT_ID      = 2025-273B
CENTER_NAME    = EARTH
REF_FRAME      = TEME
TIME_SYSTEM    = UTC
MEAN_ELEMENT_THEORY = SGP/SGP4

EPOCH          = 2025-12-25T19:47:41.824896
MEAN_MOTION    = 12.43233646
ECCENTRICITY   = .0008221
INCLINATION    = 82.5032
RA_OF_ASC_NODE = 278.3095
ARG_OF_PERICENTER = 205.6590
MEAN_ANOMALY   = 154.4083

EPHEMERIS_TYPE = 0
CLASSIFICATION_TYPE = U
NORAD_CAT_ID   = 66648
ELEMENT_SET_NO = 999
REV_AT_EPOCH   = 376
BSTAR          = .16545E-3
MEAN_MOTION_DOT = .33E-6
MEAN_MOTION_DDOT = 0

CCSDS_OMM_VERS = 2.0
CREATION_DATE  = 
ORIGINATOR     = 

OBJECT_NAME    = COSMOS 2599 (RODNIK-S 24)
OBJECT_ID      = 2025-273C
CENTER_NAME    = EARTH
REF_FRAME      = TEME
TIME_SYSTEM    = UTC
MEAN_ELEMENT_THEORY = SGP/SGP4

EPOCH          = 2025-12-25T20:36:48.203136
MEAN_MOTION    = 12.41152341
ECCENTRICITY   = .0006339
INCLINATION    = 82.5050
RA_OF_ASC_NODE = 278.3392
ARG_OF_PERICENTER = 243.1045
MEAN_ANOMALY   = 116.9386

EPHEMERIS_TYPE = 0
CLASSIFICATION_TYPE = U
NORAD_CAT_ID   = 66649
ELEMENT_SET_NO = 999
REV_AT_EPOCH   = 376
BSTAR          = .24122E-3
MEAN_MOTION_DOT = .42E-6
MEAN_MOTION_DDOT = 0

CCSDS_OMM_VERS = 2.0
CREATION_DATE  = 
ORIGINATOR     = 

OBJECT_NAME    = BEE-1000
OBJECT_ID      = 2025-274A
CENTER_NAME    = EARTH
REF_FRAME      = TEME
TIME_SYSTEM    = UTC
MEAN_ELEMENT_THEORY = SGP/SGP4

EPOCH          = 2025-12-25T18:22:56.172288
MEAN_MOTION    = 14.91704578
ECCENTRICITY   = .0011154
INCLINATION    = 97.7405
RA_OF_ASC_NODE = 286.7153
ARG_OF_PERICENTER = 203.6875
MEAN_ANOMALY   = 156.3831

EPHEMERIS_TYPE = 0
CLASSIFICATION_TYPE = U
NORAD_CAT_ID   = 66650
ELEMENT_SET_NO = 999
REV_AT_EPOCH   = 434
BSTAR          = .17801E-3
MEAN_MOTION_DOT = .1737E-4
MEAN_MOTION_DDOT = 0

